NORAD_CAT_ID,OBJECT_NAME,OBJECT_TYPE,EPOCH,MEAN_MOTION,ECCENTRICITY,INCLINATION,RA_OF_ASC_NODE,ARG_OF_PERICENTER,MEAN_ANOMALY,BSTAR,MEAN_MOTION_DOT,MEAN_MOTION_DDOT,TLE_LINE0,TLE_LINE1,TLE_LINE2,SEMIMAJOR_AXIS,PERIOD,APOGEE,PERIGEE,DECAYED
54167.0,STARLINK-5243,PAYLOAD,2023-04-24 14:00:01,15.0881933,0.0001431,53.2171,48.0082,104.1968,124.1764,0.0018211,0.00028797,0.0,0 STARLINK-5243,1 54167U 22141L   23114.58334491  .00028797  00000-0  18211-2 0  9999,2 54167  53.2171  48.0082 0001431 104.1968 124.1764 15.08819330  1301,6917.944,95.439,540.799,538.819,0.0
54167.0,STARLINK-5243,PAYLOAD,2023-04-24 22:00:01,15.08859708,0.0001414,53.2171,46.5124,86.339,153.6114,0.00045056,6.894e-05,0.0,0 STARLINK-5243,1 54167U 22141L   23114.91668981  .00006894  00000-0  45056-3 0  9992,2 54167  53.2171  46.5124 0001414  86.3390 153.6114 15.08859708 27231,6917.82,95.436,540.663,538.707,0.0
54167.0,STARLINK-5243,PAYLOAD,2023-04-25 14:00:01,15.08827312,0.0001539,53.2174,43.5194,79.814,183.2687,0.002354,0.00037362,0.0,0 STARLINK-5243,1 54167U 22141L   23115.58335648  .00037362  00000-0  23540-2 0  9994,2 54167  53.2174  43.5194 0001539  79.8140 183.2687 15.08827312 27337,6917.919,95.438,540.849,538.72,0.0
54167.0,STARLINK-5243,PAYLOAD,2023-04-26 01:33:25,15.0883246,0.0001512,53.2195,41.3585,81.8635,278.2529,9.6959e-05,1.255e-05,0.0,0 STARLINK-5243,1 54167U 22141L   23116.06488357  .00001255  00000-0  96959-4 0  9992,2 54167  53.2195  41.3585 0001512  81.8635 278.2529 15.08832460 27401,6917.903,95.438,540.814,538.722,0.0
54167.0,STARLINK-5243,PAYLOAD,2023-04-27 01:24:11,15.08854933,0.0001595,53.2192,36.8967,81.7228,278.3945,0.00034919,5.276e-05,0.0,0 STARLINK-5243,1 54167U 22141L   23117.05846384  .00005276  00000-0  34919-3 0  9994,2 54167  53.2192  36.8967 0001595  81.7228 278.3945 15.08854933 27557,6917.835,95.437,540.803,538.596,0.0
54167.0,STARLINK-5243,PAYLOAD,2023-04-27 04:34:57,15.08859202,0.0001663,53.2193,36.302,82.7002,277.418,0.00038149,5.792e-05,0.0,0 STARLINK-5243,1 54167U 22141L   23117.19094044  .00005792  00000-0  38149-3 0  9999,2 54167  53.2193  36.3020 0001663  82.7002 277.4180 15.08859202 27588,6917.822,95.436,540.837,538.536,0.0
54167.0,STARLINK-5243,PAYLOAD,2023-04-28 01:14:58,15.08858188,0.0001486,53.2183,32.4384,90.0181,270.0981,2.6768e-05,1.38e-06,0.0,0 STARLINK-5243,1 54167U 22141L   23118.05206590  .00000138  00000-0  26768-4 0  9990,2 54167  53.2183  32.4384 0001486  90.0181 270.0981 15.08858188 27704,6917.825,95.436,540.718,538.662,0.0
54167.0,STARLINK-5243,PAYLOAD,2023-04-28 10:47:17,15.08848489,0.0001616,53.2191,30.6559,90.9748,269.1429,-5.5364e-05,-1.169e-05,0.0,0 STARLINK-5243,1 54167U 22141L   23118.44951104 -.00001169  00000-0 -55364-4 0  9992,2 54167  53.2191  30.6559 0001616  90.9748 269.1429 15.08848489 27765,6917.854,95.437,540.837,538.602,0.0
54167.0,STARLINK-5243,PAYLOAD,2023-04-28 18:44:13,15.08848842,0.0001875,53.2197,29.172,101.7596,258.3606,-0.00017184,-3.023e-05,0.0,0 STARLINK-5243,1 54167U 22141L   23118.78071659 -.00003023  00000-0 -17184-3 0  9995,2 54167  53.2197  29.1720 0001875 101.7596 258.3606 15.08848842 27819,6917.853,95.437,541.015,538.421,0.0
54167.0,STARLINK-5243,PAYLOAD,2023-04-29 04:16:32,15.08844451,0.0001296,53.218,27.3833,89.1324,270.9817,-0.00013968,-2.51e-05,0.0,0 STARLINK-5243,1 54167U 22141L   23119.17815245 -.00002510  00000-0 -13968-3 0  9992,2 54167  53.2180  27.3833 0001296  89.1324 270.9817 15.08844451 27884,6917.867,95.437,540.628,538.835,0.0
54167.0,STARLINK-5243,PAYLOAD,2023-04-30 02:31:55,15.08848952,0.0001326,53.2182,23.2195,96.1312,263.9831,4.6017e-05,4.45e-06,0.0,0 STARLINK-5243,1 54167U 22141L   23120.10550509  .00000445  00000-0  46017-4 0  9991,2 54167  53.2182  23.2195 0001326  96.1312 263.9831 15.08848952 28015,6917.853,95.437,540.635,538.801,0.0
54167.0,STARLINK-5243,PAYLOAD,2023-04-30 16:50:24,15.08833942,0.0001411,53.2183,20.5461,96.7474,263.3679,0.00013479,1.858e-05,0.0,0 STARLINK-5243,1 54167U 22141L   23120.70167493  .00001858  00000-0  13479-3 0  9997,2 54167  53.2183  20.5461 0001411  96.7474 263.3679 15.08833942 28109,6917.899,95.438,540.74,538.788,0.0
54167.0,STARLINK-5243,PAYLOAD,2023-05-01 00:47:20,15.08833624,0.0001257,53.2188,19.0578,92.4566,267.657,0.0001156,1.552e-05,0.0,0 STARLINK-5243,1 54167U 22141L   23121.03287713  .00001552  00000-0  11560-3 0  9992,2 54167  53.2188  19.0578 0001257  92.4566 267.6570 15.08833624 28169,6917.9,95.438,540.634,538.895,0.0
54167.0,STARLINK-5243,PAYLOAD,2023-05-01 21:27:21,15.08842777,0.0001207,53.219,15.1919,91.8527,268.2604,5.8802e-05,6.48e-06,0.0,0 STARLINK-5243,1 54167U 22141L   23121.89399502  .00000648  00000-0  58802-4 0  9992,2 54167  53.2190  15.1919 0001207  91.8527 268.2604 15.08842777 28291,6917.872,95.437,540.572,538.902,0.0
54167.0,STARLINK-5243,PAYLOAD,2023-05-02 02:13:30,15.08847714,0.000128,53.2186,14.2994,84.0546,276.0592,8.9004e-05,1.129e-05,0.0,0 STARLINK-5243,1 54167U 22141L   23122.09271131  .00001129  00000-0  89004-4 0  9995,2 54167  53.2186  14.2994 0001280  84.0546 276.0592 15.08847714 28317,6917.857,95.437,540.607,538.836,0.0
54167.0,STARLINK-5243,PAYLOAD,2023-05-02 16:31:58,15.08844138,0.0001492,53.2188,11.6242,79.2689,280.8471,6.0504e-05,6.75e-06,0.0,0 STARLINK-5243,1 54167U 22141L   23122.68887520  .00000675  00000-0  60504-4 0  9994,2 54167  53.2188  11.6242 0001492  79.2689 280.8471 15.08844138 28401,6917.868,95.437,540.765,538.701,0.0
54167.0,STARLINK-5243,PAYLOAD,2023-05-02 21:18:08,15.08841832,0.0001386,53.219,10.732,79.0734,281.0414,0.00010048,1.312e-05,0.0,0 STARLINK-5243,1 54167U 22141L   23122.88759516  .00001312  00000-0  10048-3 0  9995,2 54167  53.2190  10.7320 0001386  79.0734 281.0414 15.08841832 28444,6917.875,95.437,540.699,538.781,0.0
54167.0,STARLINK-5243,PAYLOAD,2023-05-03 02:04:17,15.08845617,0.0001205,53.2177,9.8383,91.1869,268.9261,0.00012127,1.643e-05,0.0,0 STARLINK-5243,1 54167U 22141L   23123.08631090  .00001643  00000-0  12127-3 0  9991,2 54167  53.2177   9.8383 0001205  91.1869 268.9261 15.08845617 28473,6917.863,95.437,540.562,538.895,0.0
54167.0,STARLINK-5243,PAYLOAD,2023-05-03 19:33:32,15.08842721,0.0001221,53.2173,6.5671,90.9736,269.1396,4.4342e-05,4.18e-06,0.0,0 STARLINK-5243,1 54167U 22141L   23123.81495405  .00000418  00000-0  44342-4 0  9994,2 54167  53.2173   6.5671 0001221  90.9736 269.1396 15.08842721 28577,6917.872,95.437,540.582,538.892,0.0
54167.0,STARLINK-5243,PAYLOAD,2023-05-03 21:08:55,15.08842925,0.0001181,53.2177,6.2696,90.9819,269.1308,3.8728e-05,3.29e-06,0.0,0 STARLINK-5243,1 54167U 22141L   23123.88119393  .00000329  00000-0  38728-4 0  9992,2 54167  53.2177   6.2696 0001181  90.9819 269.1308 15.08842925 28593,6917.871,95.437,540.553,538.919,0.0
54167.0,STARLINK-5243,PAYLOAD,2023-05-04 01:55:04,15.08845065,0.000116,53.2178,5.3773,94.6424,265.4701,5.6844e-05,6.17e-06,0.0,0 STARLINK-5243,1 54167U 22141L   23124.07991136  .00000617  00000-0  56844-4 0  9996,2 54167  53.2178   5.3773 0001160  94.6424 265.4701 15.08845065 28628,6917.865,95.437,540.532,538.927,0.0
54167.0,STARLINK-5243,PAYLOAD,2023-05-04 20:59:42,15.08842936,0.0001207,53.2178,1.8082,89.7307,270.3824,2.4919e-05,1.09e-06,0.0,0 STARLINK-5243,1 54167U 22141L   23124.87479369  .00000109  00000-0  24919-4 0  9997,2 54167  53.2178   1.8082 0001207  89.7307 270.3824 15.08842936 28736,6917.871,95.437,540.571,538.901,0.0
54167.0,STARLINK-5243,PAYLOAD,2023-05-04 22:35:05,15.08844737,0.0001161,53.2176,1.5112,85.7834,274.3291,4.7603e-05,4.7e-06,0.0,0 STARLINK-5243,1 54167U 22141L   23124.94103190  .00000470  00000-0  47603-4 0  9997,2 54167  53.2176   1.5112 0001161  85.7834 274.3291 15.08844737 28750,6917.866,95.437,540.534,538.928,0.0
54167.0,STARLINK-5243,PAYLOAD,2023-05-05 20:50:29,15.08839979,0.000119,53.2179,357.347,104.4513,255.6611,4.0108e-05,3.51e-06,0.0,0 STARLINK-5243,1 54167U 22141L   23125.86839563  .00000351  00000-0  40108-4 0  9990,2 54167  53.2179 357.3470 0001190 104.4513 255.6611 15.08839979 28892,6917.88,95.438,540.569,538.922,0.0
54167.0,STARLINK-5243,PAYLOAD,2023-05-05 22:25:52,15.08842692,0.0001087,53.218,357.0504,92.5961,267.5155,5.9775e-05,6.64e-06,0.0,0 STARLINK-5243,1 54167U 22141L   23125.93463359  .00000664  00000-0  59775-4 0  9991,2 54167  53.2180 357.0504 0001087  92.5961 267.5155 15.08842692 28899,6917.872,95.437,540.489,538.985,0.0
54167.0,STARLINK-5243,PAYLOAD,2023-05-06 22:16:39,15.08843796,0.0001026,53.218,352.5922,92.9566,267.1544,6.3486e-05,7.23e-06,0.0,0 STARLINK-5243,1 54167U 22141L   23126.92823500  .00000723  00000-0  63486-4 0  9999,2 54167  53.2180 352.5922 0001026  92.9566 267.1544 15.08843796 29054,6917.869,95.437,540.444,539.024,0.0
54167.0,STARLINK-5243,PAYLOAD,2023-05-07 18:56:41,15.08833611,0.0001017,53.2175,348.728,112.8882,247.2218,2.0308e-05,3.5e-07,0.0,0 STARLINK-5243,1 54167U 22141L   23127.78936491  .00000035  00000-0  20308-4 0  9990,2 54167  53.2175 348.7280 0001017 112.8882 247.2218 15.08833611 29170,6917.9,95.438,540.468,539.061,0.0
54167.0,STARLINK-5243,PAYLOAD,2023-05-07 20:32:04,15.0883378,0.000103,53.2173,348.4307,113.5943,246.5157,1.8182e-05,2e-08,0.0,0 STARLINK-5243,1 54167U 22141L   23127.85560475  .00000002  00000-0  18182-4 0  9994,2 54167  53.2173 348.4307 0001030 113.5943 246.5157 15.08833780 29199,6917.899,95.438,540.477,539.052,0.0
54167.0,STARLINK-5243,PAYLOAD,2023-05-08 20:22:50,15.08845766,9.83e-05,53.2177,343.9693,94.021,266.0894,5.5653e-05,5.98e-06,0.0,0 STARLINK-5243,1 54167U 22141L   23128.84919815  .00000598  00000-0  55653-4 0  9994,2 54167  53.2177 343.9693 0000983  94.0210 266.0894 15.08845766 29335,6917.863,95.437,540.408,539.048,0.0
54167.0,STARLINK-5243,PAYLOAD,2023-05-08 21:58:14,15.08825482,0.0001002,53.2178,343.6721,114.1192,245.9905,0.00039468,5.997e-05,0.0,0 STARLINK-5243,1 54167U 22141L   23128.91544065  .00005997  00000-0  39468-3 0  9996,2 54167  53.2178 343.6721 0001002 114.1192 245.9905 15.08825482 29355,6917.925,95.438,540.483,539.097,0.0
